STARLINK-37992          
1 69681U 26145E   26197.57114108  .00127012  00000+0  83933-3 0  9991
2 69681  97.2840  44.4804 0000932  51.7924 308.3425 15.75203496  3390
STARLINK-37997          
1 69682U 26145F   26197.83335647 -.00122758  00000+0 -83303-3 0  9999
2 69682  97.2840  44.7581 0001215  96.3264 313.7426 15.75217358  4690
STARLINK-37990          
1 69683U 26145G   26197.83335647 -.00061712  00000+0 -41585-3 0  9998
2 69683  97.2838  44.7572 0001341  95.6007 312.4702 15.75190641  4693
STARLINK-37951          
1 69684U 26145H   26197.56972869  .00132835  00000+0  87530-3 0  9995
2 69684  97.2838  44.4818 0001587 100.3266 259.8178 15.75252455  3396
STARLINK-37957          
1 69685U 26145J   26197.56867043  .00192856  00000+0  12619-2 0  9997
2 69685  97.2833  44.4830 0001177  91.6133 268.5267 15.75245117  3399
STARLINK-37968          
1 69686U 26145K   26197.56267319  .00142805  00000+0  94157-3 0  9995
2 69686  97.2843  44.4940 0000937  91.9251 268.2122 15.75209896  3391
STARLINK-37977          
1 69687U 26145L   26197.56196692  .00140433  00000+0  92615-3 0  9993
2 69687  97.2834  44.4935 0000900 127.9981 232.1365 15.75211284  3399
STARLINK-37908          
1 69688U 26145M   26197.55985023  .00215579  00000+0  14057-2 0  9994
2 69688  97.2838  44.4968 0001226 112.2019 247.9376 15.75261760  3391
STARLINK-37979          
1 69689U 26145N   26197.81360779  .00212613  00000+0  13872-2 0  9999
2 69689  97.2851  44.7648 0001097  74.3702 285.7684 15.75254635  3438
STARLINK-37940          
1 69690U 26145P   26197.55843888  .00084821  00000+0  56356-3 0  9992
2 69690  97.2831  44.4982 0001508  98.5498 261.5938 15.75204069  3398
STARLINK-37961          
1 69691U 26145Q   26197.55526162  .00155142  00000+0  10203-2 0  9991
2 69691  97.2835  44.5025 0001311  88.8041 271.3375 15.75234209  3393
STARLINK-37787          
1 69692U 26145R   26197.55314718  .00103419  00000+0  68543-3 0  9995
2 69692  97.2829  44.5053 0001284  90.4081 269.7331 15.75204778  3391
STARLINK-37962          
1 69693U 26145S   26197.55138005  .00100598  00000+0  66670-3 0  9993
2 69693  97.2843  44.5092 0001246 101.3258 258.8147 15.75214634  3393
STARLINK-37953          
1 69694U 26145T   26197.55420397  .00208327  00000+0  13595-2 0  9998
2 69694  97.2845  44.5044 0001198 106.1174 254.0223 15.75263621  3392
STARLINK-37926          
1 69695U 26145U   26197.83335647 -.00119038  00000+0 -80722-3 0  9992
2 69695  97.2841  44.8003 0001361  87.0289  59.0245 15.75222641  4691
STARLINK-37959          
1 69696U 26145V   26197.55243942  .00140600  00000+0  92624-3 0  9999
2 69696  97.2846  44.5069 0001198 105.2935 254.8463 15.75235767  3391
STARLINK-37976          
1 69697U 26145W   26197.54961696  .00142776  00000+0  94066-3 0  9990
2 69697  97.2845  44.5107 0001376 101.2800 258.8620 15.75227488  3399
STARLINK-37912          
1 69698U 26145X   26197.54855176  .00232043  00000+0  15077-2 0  9997
2 69698  97.2832  44.5121 0001849 115.6428 244.5028 15.75296882  3390
STARLINK-37974          
1 69699U 26145Y   26197.54785106  .00199674  00000+0  13043-2 0  9996
2 69699  97.2839  44.5133 0001924 113.8466 246.3001 15.75264558  3393
STARLINK-37955          
1 69700U 26145Z   26197.54538169  .00113559  00000+0  75187-3 0  9990
2 69700  97.2832  44.5167 0001855 105.7794 254.3676 15.75197423  3396
STRIX-8                 
1 69701U 26146A   26197.81223948  .00002357  00000+0  17914-3 0  9995
2 69701  41.9904   4.1353 0006928  34.0774 326.0497 15.04442568  3023
ELECTRON R/B            
1 69702U 26146B   26197.62596203  .00418260  63194-4  10034-2 0  9999
2 69702  42.0731 353.8319 0164607  30.3715 330.6555 15.76359367  3134
ELECTRON KICK STAGE R/B 
1 69703U 26146C   26197.73900235  .00001970  00000+0  14998-3 0  9998
2 69703  41.9887   4.4474 0008744  34.5329 325.6065 15.04949718  3015
STARLINK-38055          
1 69704U 26147A   26197.62515657  .00218507  00000+0  11131-2 0  9999
2 69704  97.2814 234.0945 0001137 111.3732 248.7657 15.80818113  4083
STARLINK-37898          
1 69705U 26147B   26197.62433225  .00179003  00000+0  91503-3 0  9999
2 69705  97.2826 234.0963 0001515  94.2790 265.8652 15.80844137  4080
STARLINK-37970          
1 69706U 26147C   26197.62358858  .00151601  00000+0  77769-3 0  9990
2 69706  97.2830 234.0976 0002977  81.3299 278.8306 15.80836048  4086
STARLINK-37975          
1 69707U 26147D   26197.62283782  .00151710  00000+0  77858-3 0  9994
2 69707  97.2821 234.0979 0003428  72.9670 287.1974 15.80824756  4088
STARLINK-37972          
1 69708U 26147E   26197.62205150  .00139499  00000+0  71907-3 0  9997
2 69708  97.2817 234.0993 0000819 102.0250 258.1110 15.80766527  4081
STARLINK-37963          
1 69709U 26147F   26197.87453095  .00148615  00000+0  76142-3 0  9994
2 69709  97.2805 234.3659 0001436  93.4073 266.7359 15.80874769  4126
STARLINK-37969          
1 69710U 26147G   26197.87377424  .00266007  00000+0  13435-2 0  9998
2 69710  97.2810 234.3682 0002073 159.2075 200.9278 15.80881352  4127
