OBJECT_NAME,OBJECT_ID,EPOCH,MEAN_MOTION,ECCENTRICITY,INCLINATION,RA_OF_ASC_NODE,ARG_OF_PERICENTER,MEAN_ANOMALY,EPHEMERIS_TYPE,CLASSIFICATION_TYPE,NORAD_CAT_ID,ELEMENT_SET_NO,REV_AT_EPOCH,BSTAR,MEAN_MOTION_DOT,MEAN_MOTION_DDOT
STARLINK-37992,2026-145E,2026-07-16T13:42:26.589312,15.75203496,.0000932,97.2840,44.4804,51.7924,308.3425,0,U,69681,999,339,.83933E-3,.127012E-2,0
STARLINK-37997,2026-145F,2026-07-16T20:00:01.999008,15.75217358,.0001215,97.2840,44.7581,96.3264,313.7426,0,U,69682,999,469,-.83303E-3,-.122758E-2,0
STARLINK-37990,2026-145G,2026-07-16T20:00:01.999008,15.75190641,.0001341,97.2838,44.7572,95.6007,312.4702,0,U,69683,999,469,-.41585E-3,-.61712E-3,0
STARLINK-37951,2026-145H,2026-07-16T13:40:24.558816,15.75252455,.0001587,97.2838,44.4818,100.3266,259.8178,0,U,69684,999,339,.8753E-3,.132835E-2,0
STARLINK-37957,2026-145J,2026-07-16T13:38:53.125152,15.75245117,.0001177,97.2833,44.4830,91.6133,268.5267,0,U,69685,999,339,.12619E-2,.192856E-2,0
STARLINK-37968,2026-145K,2026-07-16T13:30:14.963616,15.75209896,.0000937,97.2843,44.4940,91.9251,268.2122,0,U,69686,999,339,.94157E-3,.142805E-2,0
STARLINK-37977,2026-145L,2026-07-16T13:29:13.941888,15.75211284,.00009,97.2834,44.4935,127.9981,232.1365,0,U,69687,999,339,.92615E-3,.140433E-2,0
STARLINK-37908,2026-145M,2026-07-16T13:26:11.059872,15.75261760,.0001226,97.2838,44.4968,112.2019,247.9376,0,U,69688,999,339,.14057E-2,.215579E-2,0
STARLINK-37979,2026-145N,2026-07-16T19:31:35.713056,15.75254635,.0001097,97.2851,44.7648,74.3702,285.7684,0,U,69689,999,343,.13872E-2,.212613E-2,0
STARLINK-37940,2026-145P,2026-07-16T13:24:09.119232,15.75204069,.0001508,97.2831,44.4982,98.5498,261.5938,0,U,69690,999,339,.56356E-3,.84821E-3,0
STARLINK-37961,2026-145Q,2026-07-16T13:19:34.603968,15.75234209,.0001311,97.2835,44.5025,88.8041,271.3375,0,U,69691,999,339,.10203E-2,.155142E-2,0
STARLINK-37787,2026-145R,2026-07-16T13:16:31.916352,15.75204778,.0001284,97.2829,44.5053,90.4081,269.7331,0,U,69692,999,339,.68543E-3,.103419E-2,0
STARLINK-37962,2026-145S,2026-07-16T13:13:59.236320,15.75214634,.0001246,97.2843,44.5092,101.3258,258.8147,0,U,69693,999,339,.6667E-3,.100598E-2,0
STARLINK-37953,2026-145T,2026-07-16T13:18:03.223008,15.75263621,.0001198,97.2845,44.5044,106.1174,254.0223,0,U,69694,999,339,.13595E-2,.208327E-2,0
STARLINK-37926,2026-145U,2026-07-16T20:00:01.999008,15.75222641,.0001361,97.2841,44.8003,87.0289,59.0245,0,U,69695,999,469,-.80722E-3,-.119038E-2,0
STARLINK-37959,2026-145V,2026-07-16T13:15:30.765888,15.75235767,.0001198,97.2846,44.5069,105.2935,254.8463,0,U,69696,999,339,.92624E-3,.1406E-2,0
STARLINK-37976,2026-145W,2026-07-16T13:11:26.905344,15.75227488,.0001376,97.2845,44.5107,101.2800,258.8620,0,U,69697,999,339,.94066E-3,.142776E-2,0
STARLINK-37912,2026-145X,2026-07-16T13:09:54.872064,15.75296882,.0001849,97.2832,44.5121,115.6428,244.5028,0,U,69698,999,339,.15077E-2,.232043E-2,0
STARLINK-37974,2026-145Y,2026-07-16T13:08:54.331584,15.75264558,.0001924,97.2839,44.5133,113.8466,246.3001,0,U,69699,999,339,.13043E-2,.199674E-2,0
STARLINK-37955,2026-145Z,2026-07-16T13:05:20.978016,15.75197423,.0001855,97.2832,44.5167,105.7794,254.3676,0,U,69700,999,339,.75187E-3,.113559E-2,0
STRIX-8,2026-146A,2026-07-16T19:29:37.491072,15.04442568,.0006928,41.9904,4.1353,34.0774,326.0497,0,U,69701,999,302,.17914E-3,.2357E-4,0
ELECTRON R/B,2026-146B,2026-07-16T15:01:23.119392,15.76359367,.0164607,42.0731,353.8319,30.3715,330.6555,0,U,69702,999,313,.10034E-2,.41826E-2,.63194E-4
ELECTRON KICK STAGE R/B,2026-146C,2026-07-16T17:44:09.803040,15.04949718,.0008744,41.9887,4.4474,34.5329,325.6065,0,U,69703,999,301,.14998E-3,.197E-4,0
STARLINK-38055,2026-147A,2026-07-16T15:00:13.527648,15.80818113,.0001137,97.2814,234.0945,111.3732,248.7657,0,U,69704,999,408,.11131E-2,.218507E-2,0
STARLINK-37898,2026-147B,2026-07-16T14:59:02.306400,15.80844137,.0001515,97.2826,234.0963,94.2790,265.8652,0,U,69705,999,408,.91503E-3,.179003E-2,0
STARLINK-37970,2026-147C,2026-07-16T14:57:58.053312,15.80836048,.0002977,97.2830,234.0976,81.3299,278.8306,0,U,69706,999,408,.77769E-3,.151601E-2,0
STARLINK-37975,2026-147D,2026-07-16T14:56:53.187648,15.80824756,.0003428,97.2821,234.0979,72.9670,287.1974,0,U,69707,999,408,.77858E-3,.15171E-2,0
STARLINK-37972,2026-147E,2026-07-16T14:55:45.249600,15.80766527,.0000819,97.2817,234.0993,102.0250,258.1110,0,U,69708,999,408,.71907E-3,.139499E-2,0
STARLINK-37963,2026-147F,2026-07-16T20:59:19.474080,15.80874769,.0001436,97.2805,234.3659,93.4073,266.7359,0,U,69709,999,412,.76142E-3,.148615E-2,0
STARLINK-37969,2026-147G,2026-07-16T20:58:14.094336,15.80881352,.0002073,97.2810,234.3682,159.2075,200.9278,0,U,69710,999,412,.13435E-2,.266007E-2,0
